[
    {
      "placeName": "Żabka",
      "category": "Store"
    },
    {
    "placeName": "Oliwa",
    "category": "Park"
    },
    {
      "placeName": "Żabka",
      "category": "Store"
    },
    {
    "placeName": "Oliwa",
    "category": "Park"
    },
    {
      "placeName": "Żabka",
      "category": "Store"
    },
    {
    "placeName": "Oliwa",
    "category": "Park"
    },
    {
      "placeName": "Żabka",
      "category": "Store"
    },
    {
    "placeName": "Oliwa",
    "category": "Park"
    },
    {
      "placeName": "Żabka",
      "category": "Store"
    },
    {
    "placeName": "Oliwa",
    "category": "Park"
    },
    {
      "placeName": "Żabka",
      "category": "Store"
    },
    {
    "placeName": "Oliwa",
    "category": "Park"
    },
    {
      "placeName": "Żabka",
      "category": "Store"
    },
    {
    "placeName": "Oliwa",
    "category": "Park"
    },
    {
      "placeName": "Żabka",
      "category": "Store"
    },
    {
    "placeName": "Oliwa",
    "category": "Park"
    },
    {
      "placeName": "Żabka",
      "category": "Store"
    },
    {
    "placeName": "Oliwa",
    "category": "Park"
    },
    {
      "placeName": "Żabka",
      "category": "Store"
    },
    {
    "placeName": "Oliwa",
    "category": "Park"
    },
    {
      "placeName": "Żabka",
      "category": "Store"
    },
    {
    "placeName": "Oliwa",
    "category": "Park"
    },
    {
      "placeName": "Żabka",
      "category": "Store"
    },
    {
    "placeName": "Oliwa",
    "category": "Park"
    },
    {
      "placeName": "Żabka",
      "category": "Store"
    },
    {
    "placeName": "Oliwa",
    "category": "Park"
    },
    {
      "placeName": "Żabka",
      "category": "Store"
    },
    {
    "placeName": "Oliwa",
    "category": "Park"
    },
    {
      "placeName": "Żabka",
      "category": "Store"
    },
    {
    "placeName": "Oliwa",
    "category": "Park"
    },
    {
      "placeName": "Żabka",
      "category": "Store"
    },
    {
    "placeName": "Oliwa",
    "category": "Park"
    },
    {
      "placeName": "Żabka",
      "category": "Store"
    },
    {
    "placeName": "Oliwa",
    "category": "Park"
    },
    {
      "placeName": "Żabka",
      "category": "Store"
    },
    {
    "placeName": "Oliwa",
    "category": "Park"
    },
    {
      "placeName": "Żabka",
      "category": "Store"
    },
    {
    "placeName": "Oliwa",
    "category": "Park"
    },
    {
      "placeName": "Żabka",
      "category": "Store"
    },
    {
    "placeName": "Oliwa",
    "category": "Park"
    },
    {
      "placeName": "Żabka",
      "category": "Store"
    },
    {
    "placeName": "Oliwa",
    "category": "Park"
    }
  ]
  
